{
  "type": "FeatureCollection",
  "features": [
    {
      "type": "Feature",
      "properties": { "name": "울산광역시" },
      "geometry": {
        "type": "Polygon",
        "coordinates": [[
          [128.9707354, 35.5610688],[128.9715078, 35.5596723],[128.9720228, 35.5578569],[128.9721086, 35.5565302],[128.9730528, 35.5556922],[128.9734819, 35.5542258],[128.9735975, 35.5538921],[128.9737979, 35.5536795],[128.9741686, 35.5530387],[128.9750393, 35.5524632],[128.9755419, 35.552131],[128.9763744, 35.5514117],[128.977001, 35.5514326],[128.9782885, 35.5511533],[128.9789751, 35.5501058],[128.9800909, 35.5484298],[128.980189, 35.5483322],[128.9808634, 35.5476617],[128.9827516, 35.5470331],[128.9842708, 35.5480771],[128.9857515, 35.548985],[128.9874079, 35.5498091],[128.9895752, 35.5509264],[128.9914206, 35.5482727],[128.9918786, 35.5476071],[128.992429, 35.5468237],[128.994253, 35.5467538],[128.9946606, 35.5451825],[128.9964631, 35.5447635],[128.9972355, 35.5439953],[128.9966347, 35.5428953],[128.9972784, 35.5416906],[128.9984158, 35.5412366],[128.9988878, 35.5401191],[128.9988234, 35.5378843],[128.9978793, 35.5367667],[128.9963343, 35.5353698],[128.9961627, 35.534392],[128.9961412, 35.5342523],[128.9964846, 35.5327855],[128.9963129, 35.5322267],[128.9952829, 35.5312489],[128.9947679, 35.5305504],[128.9947679, 35.5296423],[128.9947867, 35.5277542],[128.9960554, 35.5277563],[128.9977935, 35.5280008],[128.9988235, 35.527931],[129.000304, 35.5281405],[129.0021494, 35.5284025],[129.0046385, 35.5286295],[129.005986, 35.5288879],[129.0077284, 35.5285596],[129.0087584, 35.5279309],[129.0097017, 35.5276289],[129.0090555, 35.525621],[129.0090877, 35.5241104],[129.0097512, 35.5238837],[129.0101976, 35.523509],[129.0128568, 35.5227268],[129.0157106, 35.5238794],[129.0169723, 35.523614],[129.0192296, 35.5240541],[129.02047, 35.5237537],[129.0217832, 35.5241938],[129.0236457, 35.5250111],[129.025019, 35.5256398],[129.0263322, 35.5264291],[129.0270145, 35.5267225],[129.0280445, 35.5266352],[129.0291861, 35.5264466],[129.0300444, 35.5258878],[129.0314177, 35.5255385],[129.0320142, 35.5256224],[129.03313, 35.5254652],[129.0351728, 35.5262196],[129.036074, 35.5265156],[129.036737, 35.5267333],[129.0378568, 35.5271011],[129.0395263, 35.5276494],[129.0415076, 35.5283001],[129.0423959, 35.5285918],[129.0440949, 35.5291498],[129.0456656, 35.529101],[129.0466698, 35.5294292],[129.0485581, 35.5294292],[129.0503004, 35.5303582],[129.0514482, 35.530651],[129.0520979, 35.5308167],[129.0532103, 35.5311005],[129.0543196, 35.5313834],[129.0550626, 35.531573],[129.0560511, 35.5318251],[129.0566519, 35.530987],[129.0568236, 35.5297994],[129.0564631, 35.5281266],[129.0566519, 35.5267853],[129.0550125, 35.5263593],[129.0533689, 35.525542],[129.0519955, 35.5243336],[129.0522487, 35.5233206],[129.0523603, 35.522657],[129.0521028, 35.5220283],[129.052341, 35.5208402],[129.0510085, 35.519723],[129.051266, 35.5186226],[129.0524462, 35.5179765],[129.052532, 35.5173477],[129.0518239, 35.5168587],[129.0523561, 35.5155977],[129.0527895, 35.5142039],[129.054416, 35.5130477],[129.055815, 35.5123699],[129.0569416, 35.5116626],[129.0595058, 35.5105534],[129.0615228, 35.5094705],[129.0638788, 35.5092574],[129.0652779, 35.5085535],[129.0673807, 35.5077063],[129.0693548, 35.5065185],[129.0714148, 35.5058198],[129.0742472, 35.5054705],[129.0771654, 35.5042128],[129.0789691, 35.503724],[129.0814582, 35.5030252],[129.084149, 35.5024243],[129.0855781, 35.5023265],[129.0867797, 35.5018374],[129.0870587, 35.5007718],[129.088068, 35.499915],[129.0907172, 35.498085],[129.0922922, 35.4977688],[129.094277, 35.497533],[129.0958156, 35.4978597],[129.0969228, 35.4977653],[129.0980064, 35.4971853],[129.0993539, 35.496981],[129.1012293, 35.4974981],[129.1019718, 35.4978894],[129.1027442, 35.4976797],[129.1040746, 35.4970508],[129.1051046, 35.4966316],[129.1049758, 35.4958279],[129.106435, 35.4951641],[129.1072504, 35.4950243],[129.1072933, 35.4941508],[129.1069499, 35.4930327],[129.1072074, 35.4920194],[129.1069929, 35.4907964],[129.1075078, 35.4892939],[129.1086666, 35.4883155],[129.1095678, 35.4865683],[129.109482, 35.4849609],[129.1081516, 35.4838077],[129.1090099, 35.48234],[129.1098253, 35.4798239],[129.1111127, 35.4787755],[129.1128294, 35.4776921],[129.1140739, 35.4772727],[129.1161338, 35.4764689],[129.1169921, 35.4761893],[129.1180521, 35.4741204],[129.1190521, 35.4715061],[129.1195971, 35.4697865],[129.1199404, 35.4685982],[129.1214854, 35.46727],[129.1222278, 35.4668226],[129.1217429, 35.4659418],[129.1229445, 35.4645437],[129.1241161, 35.4636768],[129.125661, 35.4626981],[129.1256396, 35.4618592],[129.1266352, 35.4611182],[129.1272918, 35.4610203],[129.1288582, 35.459297],[129.1296951, 35.4585734],[129.1314117, 35.4582938],[129.1329566, 35.457315],[129.1341372, 35.4567854],[129.1347891, 35.456504],[129.1356389, 35.4563816],[129.1357891, 35.4555671],[129.1364199, 35.4544765],[129.1375357, 35.4537074],[129.1382224, 35.4525887],[129.1384799, 35.4511904],[129.1395656, 35.449764],[129.1399089, 35.4485054],[129.1414539, 35.4479461],[129.1425997, 35.4464358],[129.1437155, 35.4455967],[129.1453163, 35.4453589],[129.1459471, 35.4442681],[129.1469299, 35.4436731],[129.1470329, 35.4436108],[129.1474319, 35.4435424],[129.1486637, 35.4433311],[129.149552, 35.4427298],[129.1510111, 35.4418907],[129.1528136, 35.440562],[129.1548735, 35.4389537],[129.1584784, 35.4367859],[129.1613666, 35.4352893],[129.1642848, 35.4343802],[129.1660873, 35.4341704],[129.1666023, 35.433541],[129.1665465, 35.4321003],[129.1681472, 35.4317227],[129.1697222, 35.4325899],[129.1706363, 35.4327018],[129.1724388, 35.4333312],[129.1741554, 35.4333312],[129.1755587, 35.4329396],[129.1772753, 35.4325199],[129.1784469, 35.4321423],[129.1798502, 35.4327298],[129.1831118, 35.4339886],[129.1852275, 35.4349397],[129.18703, 35.4350795],[129.1886608, 35.4345201],[129.1897766, 35.4346599],[129.1917507, 35.4359187],[129.1942398, 35.437667],[129.1962139, 35.4387859],[129.1970722, 35.4391355],[129.1983038, 35.437695],[129.1989905, 35.4360865],[129.2004196, 35.4358488],[129.2008371, 35.4344026],[129.2009346, 35.4340305],[129.2017371, 35.4332892],[129.2026512, 35.4317926],[129.2028228, 35.4301841],[129.2026512, 35.4296246],[129.2013079, 35.4300722],[129.2003337, 35.4301841],[129.1997329, 35.4299743],[129.2006771, 35.429205],[129.2013079, 35.428044],[129.2009646, 35.426925],[129.2009346, 35.4258479],[129.2007629, 35.4240994],[129.2005054, 35.4235398],[129.2017929, 35.4227005],[129.2021362, 35.4216514],[129.2031662, 35.4209519],[129.2048828, 35.4209519],[129.2059428, 35.4202105],[129.2076594, 35.419581],[129.2095176, 35.4193432],[129.2108351, 35.4189515],[129.2116076, 35.4179722],[129.2138392, 35.4157339],[129.2148118, 35.4142865],[129.2148692, 35.414195],[129.2161266, 35.4137473],[129.2177016, 35.4131457],[129.2188174, 35.4113969],[129.2193882, 35.4095501],[129.2188946, 35.4071436],[129.2175299, 35.4062062],[129.2161266, 35.4052128],[129.2152983, 35.4045412],[129.2142383, 35.4037157],[129.2135388, 35.4029426],[129.2126075, 35.4019247],[129.2110068, 35.401323],[129.2107193, 35.4001756],[129.2107493, 35.3987344],[129.2102901, 35.3970972],[129.2096893, 35.3961177],[129.2086035, 35.3956559],[129.2079727, 35.3944385],[129.2066294, 35.3939767],[129.2059428, 35.3928572],[129.2050544, 35.3910799],[129.2040545, 35.3895686],[129.2037155, 35.3882951],[129.2033413, 35.3876492],[129.2033251, 35.3871981],[129.2032375, 35.3865635],[129.2030838, 35.3849551],[129.2048433, 35.3838705],[129.2069891, 35.3833107],[129.2071608, 35.382401],[129.2083756, 35.3810687],[129.2094876, 35.3807061],[129.2108909, 35.3804262],[129.2123106, 35.3803716],[129.2152718, 35.3794618],[129.2172123, 35.3793065],[129.2184912, 35.3788131],[129.2196113, 35.3791561],[129.2209031, 35.3797719],[129.2220918, 35.3796879],[129.2233399, 35.3799517],[129.2243698, 35.3796718],[129.226816, 35.3812113],[129.2288982, 35.3807656],[129.2296913, 35.3811414],[129.2309788, 35.382191],[129.2342412, 35.379401],[129.2360565, 35.3792855],[129.236786, 35.3813639],[129.2372324, 35.3829699],[129.239094, 35.3835341],[129.2407214, 35.3847124],[129.2423135, 35.3854961],[129.2429444, 35.3862868],[129.2454413, 35.38534],[129.2511061, 35.3858998],[129.2505482, 35.3877192],[129.251149, 35.3892236],[129.2533806, 35.3878241],[129.2545393, 35.3865996],[129.2549213, 35.3856899],[129.255565, 35.3850601],[129.2568525, 35.3847102],[129.2584017, 35.3844303],[129.262174, 35.3851301],[129.262822, 35.3856199],[129.2635902, 35.3857599],[129.2646673, 35.3869844],[129.2656544, 35.3874393],[129.2656973, 35.3869494],[129.2657402, 35.3864596],[129.2661651, 35.3858298],[129.2661651, 35.3840105],[129.267238, 35.3825759],[129.2676682, 35.3810023],[129.2682905, 35.3799526],[129.2681617, 35.3794802],[129.2711014, 35.3792528],[129.2711229, 35.3779581],[129.2724565, 35.3768375],[129.273848, 35.3748963],[129.2748597, 35.3736532],[129.2765978, 35.3725509],[129.2775419, 35.3716061],[129.2783144, 35.369314],[129.2783359, 35.3676517],[129.2794302, 35.3662169],[129.2828849, 35.3660244],[129.2836971, 35.3658678],[129.2844695, 35.3644504],[129.2832679, 35.3628231],[129.2817444, 35.3628231],[129.281444, 35.3603032],[129.2811007, 35.3587807],[129.2812294, 35.3575383],[129.2812509, 35.3571533],[129.2809108, 35.3562074],[129.2833141, 35.3538273],[129.2838934, 35.3530923],[129.2840222, 35.3523747],[129.2840222, 35.3519897],[129.2842153, 35.3516922],[129.2837217, 35.3514647],[129.2829278, 35.3484544],[129.283593, 35.3478243],[129.283872, 35.3468267],[129.2832282, 35.3448314],[129.2831853, 35.3433787],[129.2813185, 35.3430461],[129.2809108, 35.3420309],[129.2809505, 35.3415067],[129.2807606, 35.3410858],[129.2825201, 35.3399305],[129.2854781, 35.3393888],[129.2859072, 35.3393713],[129.2882493, 35.339983],[129.2886538, 35.3402114],[129.2894048, 35.3386361],[129.2913607, 35.3383026],[129.2913607, 35.33783],[129.2923874, 35.3369032],[129.292881, 35.3366581],[129.2927983, 35.3376025],[129.2951587, 35.3383026],[129.2957166, 35.3377425],[129.2966822, 35.3381451],[129.2981628, 35.33755],[129.2987174, 35.3370257],[129.2998118, 35.3369032],[129.3002624, 35.3369382],[129.3008664, 35.3366047],[129.301081, 35.3364297],[129.3015499, 35.3373758],[129.3037418, 35.3368673],[129.3032236, 35.336238],[129.3031163, 35.3357479],[129.3032021, 35.3353978],[129.3034381, 35.3348901],[129.3045539, 35.3337348],[129.3048307, 35.3335456],[129.3056211, 35.3330051],[129.3061518, 35.3326422],[129.306424, 35.3324561],[129.3064698, 35.332285],[129.3065675, 35.3319197],[129.3065924, 35.3318267],[129.3066782, 35.3310915],[129.3065933, 35.3308464],[129.3072361, 35.3289033],[129.3074113, 35.3286032],[129.3077245, 35.3280666],[129.3104545, 35.3233899],[129.3158919, 35.317115],[129.4889527, 35.1861705],[129.5253752, 35.2053738],[129.5590764, 35.2376709],[129.5924474, 35.2843254],[129.6072103, 35.337703],[129.6407316, 35.3658159],[129.6690341, 35.3999801],[129.6908437, 35.473226],[129.7090527, 35.5079157],[129.720619, 35.5464325],[129.7196957, 35.5897607],[129.712104, 35.6271784],[129.4882325, 35.6334917],[129.4527619, 35.6497825],[129.4507878, 35.6506891],[129.4499034, 35.6511677],[129.4497873, 35.6510651],[129.4495869, 35.6510609],[129.4496217, 35.6510173],[129.4494145, 35.6509855],[129.4486312, 35.6511276],[129.4478684, 35.6515086],[129.4472676, 35.6519968],[129.4464755, 35.652641],[129.4459694, 35.6528163],[129.4456368, 35.6531824],[129.4446498, 35.6537055],[129.4440061, 35.6537752],[129.4434911, 35.6540891],[129.4427615, 35.6544378],[129.4420105, 35.6549434],[129.4413453, 35.6545773],[129.4405836, 35.6546487],[129.4396287, 35.6550916],[129.4392425, 35.6551875],[129.4377083, 35.6546749],[129.4370002, 35.6542041],[129.4365817, 35.6533917],[129.435144, 35.6524501],[129.434393, 35.6527466],[129.4337922, 35.6533742],[129.433127, 35.6542983],[129.4331485, 35.6553619],[129.432891, 35.6559895],[129.4327515, 35.6566799],[129.4317215, 35.6566625],[129.430756, 35.6562441],[129.4296724, 35.6557977],[129.4284063, 35.6555885],[129.428106, 35.6567567],[129.4268936, 35.657203],[129.4255954, 35.6573494],[129.4234711, 35.6582038],[129.4209841, 35.6592951],[129.4200164, 35.6597728],[129.4188148, 35.6601912],[129.417214, 35.6606515],[129.4162291, 35.6618266],[129.4142443, 35.6627365],[129.4121199, 35.6634252],[129.410963, 35.663834],[129.4102252, 35.6638401],[129.4092661, 35.6635838],[129.4078714, 35.6635838],[129.4068414, 35.6628498],[129.4056933, 35.6627976],[129.4048458, 35.6629458],[129.403097, 35.6630591],[129.4028073, 35.6638174],[129.4023353, 35.6643928],[129.4014984, 35.66577],[129.400683, 35.6672012],[129.3999964, 35.6675743],[129.3974858, 35.6676876],[129.394353, 35.6682105],[129.3916923, 35.6686289],[129.3878299, 35.6698143],[129.3849116, 35.6703721],[129.3815535, 35.6711321],[129.3783778, 35.6704],[129.3761488, 35.6698226],[129.3744832, 35.6696988],[129.3726472, 35.6692718],[129.3727572, 35.670189],[129.3715516, 35.672124],[129.3705404, 35.6728909],[129.369505, 35.6730056],[129.3681822, 35.6729846],[129.3678683, 35.6731633],[129.3672782, 35.674747],[129.3668159, 35.6752895],[129.3660278, 35.675459],[129.3651751, 35.6757139],[129.3650558, 35.6757097],[129.3641429, 35.6767512],[129.3643248, 35.6782544],[129.3640888, 35.6786226],[129.3640388, 35.6789123],[129.3630935, 35.6786484],[129.361452, 35.6788087],[129.3593021, 35.6791391],[129.3562871, 35.6792479],[129.3550093, 35.6793569],[129.3535835, 35.6793987],[129.3531109, 35.6787612],[129.3524346, 35.6785878],[129.351941, 35.678651],[129.3513975, 35.6784696],[129.3503064, 35.6779341],[129.3483487, 35.6768534],[129.3479901, 35.676263],[129.3478958, 35.6757192],[129.3478212, 35.6755375],[129.3474457, 35.6754481],[129.3472639, 35.6753679],[129.3468663, 35.6747269],[129.3463566, 35.6741783],[129.3463393, 35.6739589],[129.3461582, 35.6738837],[129.3458734, 35.6739332],[129.3447123, 35.6735823],[129.3438702, 35.6725988],[129.3430343, 35.6715292],[129.3423285, 35.6711924],[129.341854, 35.6707092],[129.3414831, 35.67066],[129.3410619, 35.6704395],[129.3405099, 35.6698977],[129.3398981, 35.6696398],[129.3397866, 35.6696718],[129.339526, 35.6696117],[129.3387513, 35.6695617],[129.3380848, 35.6693057],[129.337179, 35.6691091],[129.3370566, 35.669118],[129.3368228, 35.6692229],[129.3366417, 35.6691946],[129.3361777, 35.6691793],[129.3357082, 35.6692135],[129.3353502, 35.669395],[129.334795, 35.6695977],[129.3341367, 35.669766],[129.334123, 35.6697607],[129.3341086, 35.669762],[129.3337434, 35.6690011],[129.3336447, 35.6686142],[129.333087, 35.6679229],[129.3331714, 35.6672329],[129.3330469, 35.666824],[129.3325635, 35.6665596],[129.3325534, 35.6658923],[129.3330088, 35.6653824],[129.3327402, 35.6649831],[129.3310681, 35.6655533],[129.3303172, 35.6650411],[129.3298529, 35.6642262],[129.3302093, 35.6639524],[129.3301876, 35.6636902],[129.3295121, 35.6634516],[129.3288494, 35.6628697],[129.3286371, 35.662612],[129.3287145, 35.6604397],[129.3293671, 35.6605646],[129.3300368, 35.6602525],[129.3301169, 35.659924],[129.3299286, 35.6597958],[129.3298683, 35.6587734],[129.3290341, 35.6581569],[129.3280593, 35.6587758],[129.3275252, 35.6586983],[129.3269211, 35.6582689],[129.3266272, 35.6579687],[129.3257177, 35.6576024],[129.3235814, 35.6585021],[129.3227722, 35.6580121],[129.3222468, 35.6580159],[129.320812, 35.6571232],[129.3206328, 35.6566246],[129.3195374, 35.6563622],[129.3190224, 35.6563615],[129.3187413, 35.6565928],[129.3187163, 35.6570417],[129.3189371, 35.6575859],[129.318673, 35.658064],[129.3182323, 35.6585728],[129.3178101, 35.6588719],[129.3168028, 35.6592498],[129.3163479, 35.659391],[129.3158965, 35.6594146],[129.3155461, 35.659227],[129.3148763, 35.6583745],[129.3143181, 35.6584356],[129.3135799, 35.6594207],[129.3129672, 35.6600355],[129.3111841, 35.6605068],[129.3104159, 35.6602307],[129.3101145, 35.6596159],[129.3090995, 35.6589377],[129.3073765, 35.6572779],[129.3058701, 35.6574174],[129.3050204, 35.6572675],[129.3044275, 35.6569593],[129.3040695, 35.6563325],[129.3041383, 35.6558963],[129.3038252, 35.6545863],[129.3038767, 35.6529836],[129.3040757, 35.6516091],[129.3025923, 35.6516534],[129.3021112, 35.6510124],[129.3033339, 35.6500468],[129.3034177, 35.6496511],[129.3030282, 35.6494247],[129.3029191, 35.6477087],[129.3022889, 35.6480789],[129.3006608, 35.6480335],[129.2997452, 35.6475488],[129.2983655, 35.647584],[129.2978449, 35.6470675],[129.2970786, 35.6465759],[129.2970332, 35.6459585],[129.2962606, 35.6449424],[129.2965532, 35.6434545],[129.294931, 35.6441991],[129.293105, 35.6445374],[129.2920836, 35.6450221],[129.2909249, 35.6457754],[129.2903884, 35.645887],[129.2903842, 35.6473395],[129.2887619, 35.6483805],[129.2864188, 35.649765],[129.2841786, 35.6503508],[129.2832045, 35.6511302],[129.281947, 35.6504555],[129.2808183, 35.6494511],[129.2781705, 35.6507518],[129.2764195, 35.6523804],[129.2759818, 35.6526872],[129.2744025, 35.6524152],[129.2716902, 35.6518503],[129.269081, 35.6507414],[129.2675703, 35.6519898],[129.2654761, 35.6535311],[129.2622145, 35.6538101],[129.2600172, 35.6547795],[129.2582663, 35.6567392],[129.257099, 35.6591033],[129.2551764, 35.6600866],[129.2549876, 35.6616226],[129.2548052, 35.6641957],[129.2540928, 35.6662999],[129.2553566, 35.6666207],[129.2562064, 35.6677573],[129.2567232, 35.6697093],[129.257324, 35.6715222],[129.2586973, 35.6725681],[129.2598131, 35.6729865],[129.2599848, 35.6753571],[129.2603281, 35.6777974],[129.2608431, 35.6793312],[129.2604998, 35.6802376],[129.2595556, 35.6810742],[129.2586973, 35.6828171],[129.2586973, 35.6835143],[129.2605856, 35.68456],[129.2623022, 35.6856755],[129.2623022, 35.6874183],[129.262388, 35.6890217],[129.2629888, 35.6901371],[129.2626455, 35.6918798],[129.2616156, 35.6938978],[129.2604139, 35.6958496],[129.2599419, 35.6972402],[129.2586716, 35.6990386],[129.2568949, 35.7002374],[129.2543199, 35.7009345],[129.251745, 35.7014921],[129.2500284, 35.7013527],[129.2481101, 35.7017813],[129.2464235, 35.7019103],[129.2435654, 35.7029418],[129.2421921, 35.7036388],[129.2397888, 35.7050328],[129.2370508, 35.7053603],[129.234227, 35.7049317],[129.2334845, 35.707155],[129.2330339, 35.7099567],[129.2305878, 35.7113645],[129.228369, 35.7121764],[129.2269142, 35.712281],[129.2250259, 35.7113053],[129.2232492, 35.7132009],[129.221082, 35.7160511],[129.2196014, 35.7166818],[129.2176745, 35.7158839],[129.2153657, 35.717079],[129.2143014, 35.7171696],[129.211984, 35.7186539],[129.2099069, 35.7191034],[129.209379, 35.7204866],[129.2064865, 35.7226642],[129.2053965, 35.7213577],[129.2037657, 35.7202427],[129.2020491, 35.7193368],[129.201165, 35.7182045],[129.2008217, 35.7161835],[129.1999033, 35.7151557],[129.1992767, 35.7150685],[129.196985, 35.7164065],[129.1954401, 35.7166853],[129.1937836, 35.7166017],[129.1921785, 35.7179397],[129.1906336, 35.7189153],[129.1887453, 35.719194],[129.186857, 35.7194727],[129.1853722, 35.7213403],[129.1837156, 35.7227339],[129.1811922, 35.7229569],[129.1810205, 35.7212845],[129.1804841, 35.7202323],[129.1795228, 35.7193125],[129.1785057, 35.7171592],[129.1779306, 35.7165459],[129.1764458, 35.7152079],[129.1758707, 35.7155703],[129.1748407, 35.7148734],[129.1736391, 35.7144553],[129.1731241, 35.713619],[129.1721542, 35.7136748],[129.170266, 35.7125597],[129.1694076, 35.7129779],[129.1678627, 35.7140929],[129.1662577, 35.7151522],[129.1638544, 35.7143159],[129.1623695, 35.7135354],[129.1609962, 35.7140929],[129.1599663, 35.7152079],[129.1577347, 35.7175773],[129.1553314, 35.7203647],[129.1530655, 35.7221555],[129.1505335, 35.7231694],[129.1475466, 35.7242111],[129.1451776, 35.7244899],[129.142783, 35.723706],[129.1417315, 35.7223855],[129.1398733, 35.7219082],[129.1389506, 35.7208142],[129.1397703, 35.719525],[129.1398476, 35.7181069],[129.1382769, 35.7166853],[129.1370752, 35.7152915],[129.1370752, 35.7134796],[129.1381653, 35.712281],[129.1372469, 35.7118071],[129.1354187, 35.7114447],[129.1345003, 35.7118802],[129.1324404, 35.7126468],[129.1305263, 35.7140232],[129.1290071, 35.7148769],[129.1278913, 35.7150163],[129.1272905, 35.7140406],[129.1269215, 35.7119325],[129.1263464, 35.7104864],[129.126149, 35.7085176],[129.1249731, 35.707838],[129.121969, 35.7070714],[129.1195658, 35.7067926],[129.1175058, 35.7070714],[129.1164501, 35.7083085],[129.1149309, 35.7083956],[129.1136177, 35.7085176],[129.1129568, 35.7077683],[129.1119869, 35.7069843],[129.1111544, 35.7068623],[129.1097811, 35.7070017],[129.1075924, 35.7062368],[129.1061333, 35.7062716],[129.1042021, 35.7066201],[129.1027859, 35.7065853],[129.1017988, 35.7061322],[129.1010263, 35.7056444],[129.1002109, 35.704564],[129.0990951, 35.7044247],[129.0985372, 35.7038671],[129.0976789, 35.7032398],[129.0968893, 35.702792],[129.0960117, 35.7028042],[129.0947392, 35.7025376],[129.0932458, 35.7018179],[129.0919004, 35.7016628],[129.0907267, 35.7014346],[129.0906322, 35.7005999],[129.0896409, 35.7001416],[129.088023, 35.6993383],[129.0870359, 35.6988155],[129.0856626, 35.6982579],[129.0842464, 35.6978397],[129.0833023, 35.6978397],[129.0824011, 35.6981533],[129.0822466, 35.6978885],[129.0815857, 35.6973169],[129.0812424, 35.6967244],[129.0803841, 35.6964107],[129.0805986, 35.6960622],[129.080427, 35.6955046],[129.0799292, 35.6948215],[129.0795258, 35.6944241],[129.0787104, 35.6942847],[129.0776804, 35.6936922],[129.0769079, 35.692786],[129.0766075, 35.6915313],[129.0760925, 35.690625],[129.0756805, 35.6897676],[129.0749767, 35.6888823],[129.0741184, 35.6883246],[129.0738609, 35.6878366],[129.0740755, 35.6874532],[129.0737493, 35.6865608],[129.072949, 35.6849714],[129.0714448, 35.6837182],[129.0699749, 35.681808],[129.0696896, 35.6805496],[129.0701487, 35.6792458],[129.0709985, 35.6781652],[129.0725928, 35.6773581],[129.0721443, 35.6767516],[129.0714148, 35.6759846],[129.070256, 35.6752525],[129.0692003, 35.6741509],[129.0684042, 35.6734223],[129.0676167, 35.6722317],[129.0672949, 35.6715065],[129.0679129, 35.6707413],[129.0689772, 35.6700301],[129.0691574, 35.6694723],[129.0686531, 35.6687802],[129.0684536, 35.6677569],[129.0684965, 35.6666412],[129.0683248, 35.665142],[129.0682819, 35.6639217],[129.0678699, 35.6630291],[129.0670803, 35.6621783],[129.0670803, 35.6614112],[129.0674665, 35.6601909],[129.0677412, 35.6591239],[129.0681961, 35.6584474],[129.0699556, 35.6576454],[129.0712431, 35.6570178],[129.0724447, 35.6561112],[129.0736206, 35.655358],[129.0742214, 35.6543119],[129.074848, 35.6529379],[129.0763715, 35.6504272],[129.0770152, 35.6499389],[129.0790065, 35.6494996],[129.0798476, 35.6490671],[129.080663, 35.6479861],[129.0813068, 35.6471142],[129.0816501, 35.6464516],[129.0816501, 35.6455099],[129.0818647, 35.6444288],[129.0816501, 35.6436267],[129.0814355, 35.6426851],[129.0802339, 35.6421271],[129.0788606, 35.6414993],[129.0779594, 35.6409064],[129.0770152, 35.6405925],[129.0760453, 35.6400485],[129.0754274, 35.6405577],[129.0745433, 35.641304],[129.0738824, 35.6420225],[129.0735391, 35.6427897],[129.0731958, 35.6433826],[129.0720113, 35.6438499],[129.0710071, 35.644115],[129.0697368, 35.6445125],[129.0684751, 35.6446381],[129.0672734, 35.6445683],[129.0663036, 35.6443382],[129.0656598, 35.6448264],[129.0643724, 35.646047],[129.0632823, 35.646626],[129.0623382, 35.6469399],[129.0615657, 35.647184],[129.0606216, 35.647463],[129.0600208, 35.6474979],[129.0590337, 35.647463],[129.0576776, 35.6475118],[129.055961, 35.6478605],[129.0543988, 35.6481953],[129.053798, 35.6480907],[129.0529397, 35.6477768],[129.0522531, 35.6480907],[129.0516093, 35.6481953],[129.0510514, 35.6484743],[129.0499786, 35.648823],[129.0494636, 35.6491718],[129.0485194, 35.6492066],[129.0471979, 35.6501599],[129.0465048, 35.6497462],[129.0458227, 35.648512],[129.0452104, 35.6474561],[129.0446036, 35.6464808],[129.0443787, 35.6454638],[129.0444521, 35.6438565],[129.0440819, 35.6426987],[129.0435691, 35.6414362],[129.0425623, 35.6403767],[129.0423335, 35.6395073],[129.0411503, 35.6373112],[129.0402442, 35.6359463],[129.0385405, 35.6351342],[129.0380868, 35.6345428],[129.0375456, 35.6336365],[129.037251, 35.6324373],[129.0357884, 35.6318831],[129.0343179, 35.6322669],[129.0334991, 35.6323612],[129.0325549, 35.6327797],[129.0302118, 35.6337354],[129.0288642, 35.6346632],[129.0274652, 35.6356887],[129.0256885, 35.6353608],[129.0245727, 35.634733],[129.0232852, 35.6345237],[129.0225986, 35.6346632],[129.0210279, 35.6347818],[129.0206245, 35.6338959],[129.0204271, 35.6326193],[129.0193971, 35.6314334],[129.0190151, 35.6301637],[129.0187147, 35.6291521],[129.0170581, 35.6278057],[129.0163715, 35.6275266],[129.0149982, 35.6267941],[129.0131958, 35.6262011],[129.0111359, 35.6254337],[129.0093591, 35.6245127],[129.0078142, 35.6233789],[129.005707, 35.6218929],[129.0046986, 35.6213522],[129.0030678, 35.6205149],[129.0042093, 35.619559],[129.0050676, 35.6187218],[129.0061834, 35.6179543],[129.0070417, 35.617117],[129.0074709, 35.6160704],[129.0093592, 35.615861],[129.0107325, 35.615861],[129.0126207, 35.6154424],[129.0135391, 35.6159797],[129.0147665, 35.6163495],[129.0155991, 35.6163285],[129.0173414, 35.615861],[129.0182856, 35.6157913],[129.0202597, 35.6153726],[129.0215471, 35.6147446],[129.0220621, 35.6137678],[129.0232423, 35.6130177],[129.0231994, 35.6110464],[129.0232423, 35.6099997],[129.023843, 35.6090576],[129.0234998, 35.6080458],[129.0234998, 35.6068595],[129.0237573, 35.6049056],[129.0236071, 35.6033005],[129.0233711, 35.6019571],[129.0240791, 35.6015209],[129.0249374, 35.6008405],[129.0250447, 35.5999507],[129.0254953, 35.5991133],[129.0246156, 35.5975953],[129.0235641, 35.5961123],[129.0228989, 35.5950654],[129.0236929, 35.5922736],[129.0231779, 35.5906682],[129.0221479, 35.5898307],[129.0209463, 35.5885743],[129.0199163, 35.5872481],[129.0199163, 35.5863407],[129.0192469, 35.5841559],[129.0194443, 35.5835487],[129.0178135, 35.5827109],[129.0160111, 35.5826411],[129.0142086, 35.5823619],[129.0124062, 35.5820827],[129.0112046, 35.5807564],[129.0106896, 35.5801282],[129.0097454, 35.5798489],[129.0082005, 35.5794301],[129.0075138, 35.5785226],[129.0067414, 35.5772661],[129.0053681, 35.5763586],[129.0040806, 35.5754511],[129.0026215, 35.5741246],[129.0019777, 35.572135],[129.0007761, 35.5714369],[128.9994028, 35.5707386],[128.9990453, 35.5704875],[128.9975145, 35.5694122],[128.9966562, 35.568714],[128.9957121, 35.5673876],[128.9945104, 35.5666195],[128.9929655, 35.56641],[128.9914205, 35.5657119],[128.9893606, 35.5652231],[128.9877298, 35.5646646],[128.9862707, 35.5647344],[128.9851979, 35.5649089],[128.9838246, 35.5649787],[128.9824513, 35.5653278],[128.9812925, 35.5658166],[128.9804342, 35.5649788],[128.9785459, 35.5642806],[128.9764002, 35.56449],[128.9751127, 35.5631634],[128.9733961, 35.5623954],[128.9720228, 35.5620463],[128.9707354, 35.5610688]
        ]]
      }
    }
  ]
}
